[{"OBJECT_NAME":"TRANSPORTER-10 OBJECT AG","OBJECT_ID":"2024-043AG","EPOCH":"2026-03-09T22:12:45.387648","MEAN_MOTION":15.30759727,"ECCENTRICITY":0.00093005,"INCLINATION":97.5471,"RA_OF_ASC_NODE":205.7101,"ARG_OF_PERICENTER":226.5958,"MEAN_ANOMALY":133.4509,"EPHEMERIS_TYPE":0,"CLASSIFICATION_TYPE":"U","NORAD_CAT_ID":59128,"ELEMENT_SET_NO":999,"REV_AT_EPOCH":11192,"BSTAR":0.00032170115,"MEAN_MOTION_DOT":9.498e-5,"MEAN_MOTION_DDOT":0},{"OBJECT_NAME":"STARLINK-33612","OBJECT_ID":"2025-057U","EPOCH":"2026-03-09T22:45:21.704832","MEAN_MOTION":15.27619291,"ECCENTRICITY":0.00014735,"INCLINATION":43.0053,"RA_OF_ASC_NODE":29.6754,"ARG_OF_PERICENTER":249.2291,"MEAN_ANOMALY":110.8403,"EPHEMERIS_TYPE":0,"CLASSIFICATION_TYPE":"U","NORAD_CAT_ID":63325,"ELEMENT_SET_NO":999,"REV_AT_EPOCH":5581,"BSTAR":0.0022596438,"MEAN_MOTION_DOT":0.00062522,"MEAN_MOTION_DDOT":0}]
